NETSAT-1
1 46506U 20068W   25062.88551962  .00012378  00000-0  55668-3 0  9990
2 46506  97.8398  33.1579 0006297 187.0936 173.0210 15.21254405243498
NETSAT-2
1 46507U 20068X   25062.64721840  .00018846  00000-0  73711-3 0  9994
2 46507  97.8380  34.8254 0005355 184.8450 175.2736 15.25884881243531
ARKTIKA-M1
1 47719U 21016A   25062.45269170  .00000094  00000-0  00000-0 0  9990
2 47719  63.1336 121.0266 7054911 268.5042  17.0582  2.00626086 29345
SIMBA
1 47941U 21022K   25063.23345201  .00030577  00000-0  82300-3 0  9996
2 47941  97.4328 326.0317 0009091 313.2527  46.7958 15.37769462218194
UNISAT-7
1 47945U 21022P   25062.66911551  .00014022  00000-0  54267-3 0  9991
2 47945  97.4322 321.6514 0010715 319.8483  40.1963 15.26254896217764
CUBESX-SIRIUS-HSE
1 47951U 21022V   25063.21659864  .00092698  00000-0  13175-2 0  9993
2 47951  97.4302 331.1577 0003717 300.9403  59.1486 15.56068721218530
CUBESX-HSE (RS13S)
1 47952U 21022W   25063.12658580  .00091329  00000-0  12713-2 0  9995
2 47952  97.4302 331.2571 0003404 288.2035  71.8849 15.56639752218530
KSU-CUBESAT
1 47954U 21022Y   25062.81991128  .00375074  00000-0  15925-2 0  9990
2 47954  97.4252 335.6056 0003427 137.8696 222.2838 15.84348166218503
CHALLENGEONE
1 47956U 21022AA  25063.17581954  .00135083  00000-0  14166-2 0  9994
2 47956  97.4292 332.6846 0002236 283.5710  76.5300 15.63941611218411
GRBALPHA
1 47959U 21022AD  25063.15466616  .00094825  00000-0  13293-2 0  9990
2 47959  97.4290 331.4382 0003663 298.6440  61.4446 15.56435104217360
ORBICRAFT-ZORKIY (RS15S)
1 47960U 21022AE  25063.14834603  .00178472  00000-0  14531-2 0  9993
2 47960  97.4268 334.8260 0000835 188.2347 171.8901 15.70106960218248
CSS (TIANHE-1)
1 48274U 21035A   25063.02436798  .00034128  00000-0  39625-3 0  9997
2 48274  41.4650 301.0393 0007466 280.0498  79.9498 15.61023996219718
FENGYUN-4B
1 48808U 21047A   25062.84837568 -.00000334  00000-0  00000-0 0  9997
2 48808   0.1926  84.4232 0012217   5.3832 122.0146  1.00273996 13855
TUBIN
1 48900U 21059X   25063.13331670  .00042763  00000-0  77193-3 0  9990
2 48900  97.6686 225.2586 0004993 240.6186 119.4566 15.49610798204892
BRO-4
1 49066U 21073A   25041.18501376  .08138383  25083-5  11028-2 0  9992
2 49066  97.4077 131.8923 0008360 280.9497  79.0859 16.35299950193701
LEDSAT
1 49069U 21073D   25063.19090672  .00048745  00000-0  97517-3 0  9991
2 49069  97.3994 141.6492 0012147  77.4630 282.7978 15.46547632196316
CUTE-LASP
1 49263U 21088D   25063.19423374  .00021805  00000-0  50727-3 0  9992
2 49263  97.4607 136.9077 0008801 229.9830 130.0646 15.42289687189394
HEAD-2F
1 49322U 21091H   25063.16273687  .00112138  00000-0  86500-3 0  9997
2 49322  97.4108 273.7454 0005031 196.6727 163.4371 15.71595287189115
JILIN-01 GAOFEN 2F
1 49338U 21097A   25063.16000586  .00017103  59414-7  66718-3 0  9991
2 49338  97.6025 187.6042 0014700 255.6247 104.3359 15.25866688183933
TEIKYOSAT-4 (OORURI)
1 49396U 21102B   25062.70151528  .00003243  00000-0  22052-3 0  9997
2 49396  97.4249 104.6300 0014526 107.4830 252.7986 15.06928634181804
Z-SAT
1 49399U 21102E   25063.12208721  .00006249  00000-0  35546-3 0  9996
2 49399  97.3950 107.5684 0020168  83.3296 277.0230 15.13038335182237
KOSEN-1
1 49402U 21102H   25063.06894202  .00009289  00000-0  45598-3 0  9994
2 49402  97.3855 110.2425 0017780  63.3263 296.9789 15.18161207182484
CAMSAT XW-3 (CAS-9)
1 50466U 21131B   25063.18410395  .00001033  00000-0  33798-3 0  9996
2 50466  98.5110 153.0375 0005114  75.8923 284.2833 14.40586195167429
SICH-2-1 (SICH-2-30)
1 51030U 22002AY  25063.20144845  .00049685  00000-0  85134-3 0  9995
2 51030  97.3470 136.9128 0005299 176.0821 184.0474 15.51053682174366
IRIS-A
1 51044U 22002BN  25063.18099341  .00092678  00000-0  10746-2 0  9993
2 51044  97.3393 138.7502 0004201 185.2084 174.9131 15.61487107174526
VZLUSAT-2
1 51085U 22002DF  25063.18393986  .00039365  00000-0  79450-3 0  9992
2 51085  97.3463 134.0006 0007300 194.1470 165.9576 15.46389234174177
INSPIRESAT-1
1 51657U 22013B   25063.06301722  .00017880  00000-0  46281-3 0  9997
2 51657  97.5068  89.8620 0005422 338.6836  21.4183 15.39113851169354
GOES-18
1 51850U 22021A   25063.22975656  .00000092  00000-0  00000+0 0  9994
2 51850   0.0092  55.2199 0000196 320.0931  92.6085  1.00271385 11095
MERIDIAN-10
1 52145U 22030A   25062.39849673  .00000236  00000-0  00000-0 0  9999
2 52145  62.6559 190.3365 6757154 273.5587  17.5793  2.00597954 21580
BRO-7
1 52174U 22033T   25063.20473367  .00045775  00000-0  49463-3 0  9994
2 52174  97.3012 157.1655 0005779  50.6096 309.5674 15.63478197163675
BRO-6
1 52422U 22047AE  25063.17835272  .00013585  00000-0  43306-3 0  9992
2 52422  97.3698 146.6291 0004807 332.9314  27.1676 15.32639690158807
CONNECTA-T1
1 52739U 22057H   25062.87779282  .00035416  00000-0  78619-3 0  9990
2 52739  97.5988 197.4005 0005791 319.2063  40.8750 15.43616699154000
PLATFORM-1
1 52770U 22057AQ  25062.93081951  .00062872  00000-0  13063-2 0  9998
2 52770  97.5961 200.9846 0007749 290.6227  69.4190 15.45423663154282
STEP CUBELAB-II
1 52897U 22065D   25063.18152594  .00001976  00000-0  40360-3 0  9996
2 52897  98.1531 205.8366 0009578  61.9906 298.2263 14.61962176142798
RANDEV
1 52898U 22065E   25063.15623472  .00002167  00000-0  43896-3 0  9992
2 52898  98.1521 205.9774 0008861  63.6437 296.5673 14.62253673142527
SNUGLITE-II
1 52899U 22065F   25062.89425064  .00002221  00000-0  44486-3 0  9997
2 52899  98.1510 205.9346 0008364  64.4735 295.7331 14.62730978142204
MIMAN
1 52900U 22065G   25062.95153637  .00001415  00000-0  29870-3 0  9995
2 52900  98.1551 205.0120 0008556  61.3739 298.8322 14.60874410141757
GREENCUBE (IO-117)
1 53106U 22080B   25051.21822557 -.00000003  00000-0  00000+0 0  9995
2 53106  70.1434 106.3440 0008542  48.0089 312.1297  6.42557744 61200
ROBUSTA 1F (MTCUBE-2)
1 53109U 22080E   25061.45057144 -.00000003  00000-0  00000-0 0  9998
2 53109  70.1207 102.3114 0008417  29.1872 330.9257  6.42584289 61754
BLUEWALKER-3
1 53807U 22111AL  25063.15553470  .00000420  00000-0  25037-4 0  9993
2 53807  53.2343  69.6786 0007281 151.5488 208.5913 15.32261463138011
CAMSAT CAS-5A (FO-118)
1 54684U 22167C   25063.14406964  .03010997  25468-5  15739-2 0  9991
2 54684  97.5932 228.9344 0010475 288.5885  71.4265 16.20111204124591
ELEKTRO-L4
1 55506U 23016A   25063.08922528 -.00000063  00000-0  00000+0 0  9994
2 55506   0.0492 311.0456 0000644   9.9238  39.0039  1.00270975  7601
BDSAT-2
1 55098U 23001CT  25043.17195676  .04841583  24403-5  13946-2 0  9995
2 55098  97.3601 120.6613 0008975 287.7661  72.2652 16.27416800118122
SHARJAHSAT-1
1 55104U 23001CZ  25063.16566148  .00015809  00000-0  52503-3 0  9995
2 55104  97.3848 124.9704 0008198   6.3768 353.7576 15.31265339120174
METEOR M2-3
1 57166U 23091A   25063.17512851  .00000036  00000-0  34894-4 0  9997
2 57166  98.6755 121.0303 0005098  96.3046 263.8714 14.23980837 87626
STRATOSAT-TK1 (RS52S)
1 57167U 23091B   25063.17754506  .00034725  00000-0  11662-2 0  9991
2 57167  97.5681 124.0833 0009721 292.6041  67.4170 15.30727932 93060
RESHUCUBE-2 (RS37S)
1 57168U 23091C   25063.17433779  .00011042  00000-0  57486-3 0  9990
2 57168  97.5707 119.9406 0013120 310.2937  49.7148 15.16120196 92798
RASSVET 1-1
1 57169U 23091D   25063.19062108  .00008203  00000-0  44248-3 0  9994
2 57169  97.5763 119.9917 0011106 299.6759  60.3367 15.14972243 92789
RASSVET 1-2
1 57170U 23091E   25063.12470442  .00007935  00000-0  42831-3 0  9990
2 57170  97.5768 119.9703 0009772 290.5777  69.4406 15.14970334 92777
RASSVET 1-3
1 57171U 23091F   25063.19038010  .00008277  00000-0  44630-3 0  9998
2 57171  97.5765 120.0096 0012094 311.1196  48.8991 15.14972840 92784
UMKA-1 (RS40S)
1 57172U 23091G   25063.22413033  .00008215  00000-0  46145-3 0  9990
2 57172  97.5725 119.1575 0013829 313.6860  46.3224 15.13496956 92740
SATURN (RS43S)
1 57174U 23091J   25063.17439779  .00003610  00000-0  22913-3 0  9992
2 57174  97.5734 117.4462 0013776 329.7599  30.2833 15.09444088 92625
CUBEBEL-2 (EU11S)
1 57175U 23091K   25063.21328105  .00011251  00000-0  58072-3 0  9993
2 57175  97.5725 119.7745 0011892 324.3814  35.6624 15.16433638 92784
SITRO-AIS-5 (ANOKHIN)
1 57176U 23091L   25063.22888282  .00012139  00000-0  61769-3 0  9995
2 57176  97.5727 120.1358 0013847 310.3094  49.6928 15.16893156 92800
ZORKIY-2M
1 57177U 23091M   25063.14200033  .00006270  00000-0  35502-3 0  9994
2 57177  97.5759 119.2646 0014566 309.4469  50.5473 15.13299517 92735
CUBESX-HSE-3 (RS42S)
1 57178U 23091N   25063.18819640  .00012384  00000-0  61564-3 0  9999
2 57178  97.5751 120.7167 0013307 302.9168  57.0785 15.17711410 92822
PHI-DEMO
1 57181U 23091R   25063.16196670  .00005372  00000-0  33328-3 0  9998
2 57181  97.5738 117.7543 0015702 319.4223  40.5835 15.10042841 92642
MONITOR-3 (RS58S)
1 57180U 23091Q   25063.18496611  .00010762  00000-0  55569-3 0  9997
2 57180  97.5745 120.2105 0013838 304.7293  55.2636 15.16408221 92796
NORBY-2
1 57179U 23091P   25063.17840155  .00005701  00000-0  34276-3 0  9999
2 57179  97.5768 118.5009 0015544 310.4724  49.5150 15.11159308 92679
MONITOR-4 (RS57S)
1 57182U 23091S   25063.18407275  .00010705  00000-0  55220-3 0  9998
2 57182  97.5740 120.1681 0013890 305.3790  54.6144 15.16444934 92796
MONITOR-2 (RS39S)
1 57184U 23091U   25063.17009866  .00006995  00000-0  40148-3 0  9992
2 57184  97.5752 119.4695 0011640 303.4781  56.5337 15.12799341 92748
SVYATOBOR-1 (RS60S)
1 57187U 23091X   25063.15115926  .00009728  00000-0  50161-3 0  9991
2 57187  97.5752 120.8835 0010443 296.1151  63.9006 15.16522885 92838
VIZARD-METEO (RS38S)
1 57189U 23091Z   25063.16620783  .00014341  00000-0  66572-3 0  9996
2 57189  97.5739 122.1806 0009130 289.2286  70.7961 15.20097621 92927
NANOZOND-1 (RS49S)
1 57190U 23091AA  25063.16725739  .00026506  00000-0  95224-3 0  9997
2 57190  97.5694 124.5704 0006955 283.6577  76.3888 15.28610769 93096
